COSMOS 2425 (716)       
1 29670U 06062A   21311.61005517  .00000021  00000-0  00000-0 0  9994
2 29670  64.8097 250.6136 0024438 342.1845 200.6158  2.13114365115725
COSMOS 2433 (720)       
1 32275U 07052A   21311.91521509 -.00000065  00000-0  00000-0 0  9995
2 32275  66.0772  12.0258 0004577 231.5911 352.3545  2.13104314109244
COSMOS 2432 (719)       
1 32276U 07052B   21311.98398228 -.00000065  00000-0  00000+0 0  9992
2 32276  66.0901  12.1215 0008948 316.5542 269.0383  2.13103496109247
COSMOS 2434 (721)       
1 32393U 07065A   21311.60089712  .00000021  00000-0  00000-0 0  9992
2 32393  64.4290 249.0068 0000902  79.5507 152.0596  2.13103138107941
COSMOS 2436 (723)       
1 32395U 07065C   21312.19619719  .00000019  00000-0  00000+0 0  9991
2 32395  64.4378 249.0416 0015278 353.8173 110.5085  2.13102926107896
COSMOS 2456 (730)       
1 36111U 09070A   21311.54230940  .00000067  00000-0  00000-0 0  9996
2 36111  64.3011 128.6732 0001867 351.3361   4.0003  2.13099292 92603
COSMOS 2457 (733)       
1 36112U 09070B   21311.61656365  .00000067  00000-0  00000-0 0  9998
2 36112  64.2850 128.5522 0006750 147.6505  30.1784  2.13101526 92613
COSMOS 2459 (731)       
1 36400U 10007A   21311.72033988 -.00000063  00000-0  00000-0 0  9999
2 36400  65.9702  10.9355 0025200 346.6681 307.7035  2.13109856 90953
COSMOS 2461 (735)       
1 36401U 10007B   21312.00068480 -.00000065  00000-0  00000+0 0  9998
2 36401  65.9661  10.8902 0017977   4.4596 142.7446  2.13103686 90971
COSMOS 2460 (732)       
1 36402U 10007C   21311.79215836 -.00000064  00000-0  00000-0 0  9993
2 36402  65.9528  10.8529 0001909 202.8783  90.6222  2.13106532 90964
COSMOS 2464 (736)       
1 37139U 10041C   21311.90907506  .00000020  00000-0  00000-0 0  9995
2 37139  64.0278 248.1822 0028431   7.4170 320.4721  2.13100756 87027
COSMOS 2471 (701K)      
1 37372U 11009A   21312.06927831 -.00000065  00000-0  00000+0 0  9999
2 37372  65.9469  10.7719 0017303 228.8237  43.4429  2.13062364 83244
COSMOS 2476 (744)       
1 37867U 11064A   21311.65220265  .00000068  00000-0  00000-0 0  9993
2 37867  64.5936 129.9392 0019448 230.9374 112.2599  2.13101913 77953
COSMOS 2477 (745)       
1 37868U 11064B   21311.91890259  .00000068  00000-0  00000-0 0  9999
2 37868  64.6015 129.9918 0016855 231.2082 134.8557  2.13101798 77928
COSMOS 2475 (743)       
1 37869U 11064C   21311.99746155  .00000067  00000-0  00000+0 0  9991
2 37869  64.6090 129.9953 0020248 253.2071 130.9721  2.13102040 77936
COSMOS 2485 (747)       
1 39155U 13019A   21311.62734102  .00000069  00000-0  00000-0 0  9995
2 39155  64.7593 130.3198 0020164 226.6640 141.9297  2.13101970 66439
COSMOS 2492 (754)       
1 39620U 14012A   21312.13943008 -.00000066  00000-0  00000+0 0  9997
2 39620  65.8408  10.5535 0012118 314.9424 121.1548  2.13103310 59394
COSMOS 2500 (755)       
1 40001U 14032A   21311.65505203 -.00000063  00000-0  00000-0 0  9999
2 40001  65.7808  10.4462 0008348 204.2005  79.5555  2.13102442 57595
COSMOS 2501 (702K)      
1 40315U 14075A   21311.35248402  .00000020  00000-0  00000-0 0  9998
2 40315  63.7386 248.9543 0017961 212.7916   5.8120  2.13101342 53994
COSMOS 2514 (751)       
1 41330U 16008A   21311.68607397 -.00000063  00000-0  00000-0 0  9990
2 41330  65.5824  10.1925 0012057 211.9770 278.9890  2.13102861 44761
COSMOS 2516 (753)       
1 41554U 16032A   21311.41597545  .00000021  00000-0  00000-0 0  9992
2 41554  63.9639 249.1659 0014537 221.9671 320.2153  2.13107168 42361
COSMOS 2522 (752)       
1 42939U 17055A   21312.14194569  .00000019  00000-0  00000+0 0  9992
2 42939  64.1970 249.4705 0008978 249.6663 349.7638  2.13102135 32132
COSMOS 2527 (756)       
1 43508U 18053A   21311.54992890  .00000069  00000-0  00000-0 0  9996
2 43508  64.9228 130.2768 0006834 212.4152 324.9619  2.13102598 26416
COSMOS 2529 (757)       
1 43687U 18086A   21311.73504424  .00000021  00000-0  00000-0 0  9991
2 43687  64.4124 249.7413 0011197 269.9833 332.8320  2.13102146 23433
COSMOS 2534 (758)       
1 44299U 19030A   21311.48382708  .00000021  00000-0  00000-0 0  9992
2 44299  64.4831 249.6140 0013942 287.8602 256.9661  2.13101954 19072
COSMOS 2544 (759)       
1 44850U 19088A   21311.05299003  .00000072  00000-0  00000-0 0  9992
2 44850  64.9075 130.1501 0009834 254.1962 305.5794  2.13102378 14834
COSMOS 2545 (760)       
1 45358U 20018A   21311.49161480 -.00000064  00000-0  00000-0 0  9998
2 45358  64.9174  10.9903 0010534 240.9835 145.1074  2.13102749 12806
